{"type": "FeatureCollection", "features": [ {"type": "Feature", "properties": {"norad_id": 66446, "name": "STARLINK-34986", "group": "last-30-days", "lat": -41.893995036414566, "lon": -35.0505112778099, "alt_km": 417.15023986756023, "timestamp": "2025-12-08T17:43:03.631280+00:00", "meta": {"OBJECT_NAME": "STARLINK-34986", "OBJECT_ID": "2025-259AA", "EPOCH": "2025-12-08T07:19:59.973600", "MEAN_MOTION": 15.50609356, "ECCENTRICITY": 0.00011612, "INCLINATION": 42.9978, "RA_OF_ASC_NODE": 73.1709, "ARG_OF_PERICENTER": 254.1343, "MEAN_ANOMALY": 105.9389, "EPHEMERIS_TYPE": 0, "CLASSIFICATION_TYPE": "U", "NORAD_CAT_ID": 66446, "ELEMENT_SET_NO": 999, "REV_AT_EPOCH": 548, "BSTAR": 0.0022545539, "MEAN_MOTION_DOT": 0.00134361, "MEAN_MOTION_DDOT": 0}, "tle": {"line1": "1 66446U 25259AA  25342.30555525  .00134361  00000+0  22546-2 0  9993", "line2": "2 66446  42.9978  73.1709 0001161 254.1343 105.9389 15.50609356  5487"}}, "geometry": {"type": "Point", "coordinates": [-35.0505112778099, -41.893995036414566]}}, {"type": "Feature", "properties": {"norad_id": 66447, "name": "STARLINK-34851", "group": "last-30-days", "lat": -42.48014841096553, "lon": -30.060290384556236, "alt_km": 417.3519240440146, "timestamp": "2025-12-08T17:43:03.631291+00:00", "meta": {"OBJECT_NAME": "STARLINK-34851", "OBJECT_ID": "2025-259AB", "EPOCH": "2025-12-08T07:19:00.696288", "MEAN_MOTION": 15.50572331, "ECCENTRICITY": 0.00011615, "INCLINATION": 43.0005, "RA_OF_ASC_NODE": 73.1647, "ARG_OF_PERICENTER": 263.5608, "MEAN_ANOMALY": 96.512, "EPHEMERIS_TYPE": 0, "CLASSIFICATION_TYPE": "U", "NORAD_CAT_ID": 66447, "ELEMENT_SET_NO": 999, "REV_AT_EPOCH": 537, "BSTAR": 0.0017954548, "MEAN_MOTION_DOT": 0.00106406, "MEAN_MOTION_DDOT": 0}, "tle": {"line1": "1 66447U 25259AB  25342.30486917  .00106406  00000+0  17955-2 0  9999", "line2": "2 66447  43.0005  73.1647 0001161 263.5608  96.5120 15.50572331  5378"}}, "geometry": {"type": "Point", "coordinates": [-30.060290384556236, -42.48014841096553]}}, {"type": "Feature", "properties": {"norad_id": 66448, "name": "STARLINK-35355", "group": "last-30-days", "lat": -42.701553729797226, "lon": -27.38390596599387, "alt_km": 416.99866707327783, "timestamp": "2025-12-08T17:43:03.631301+00:00", "meta": {"OBJECT_NAME": "STARLINK-35355", "OBJECT_ID": "2025-259AC", "EPOCH": "2025-12-08T07:18:30.998880", "MEAN_MOTION": 15.50607242, "ECCENTRICITY": 0.00014481, "INCLINATION": 43.0019, "RA_OF_ASC_NODE": 73.1614, "ARG_OF_PERICENTER": 266.485, "MEAN_ANOMALY": 93.5844, "EPHEMERIS_TYPE": 0, "CLASSIFICATION_TYPE": "U", "NORAD_CAT_ID": 66448, "ELEMENT_SET_NO": 999, "REV_AT_EPOCH": 548, "BSTAR": 0.0022496261, "MEAN_MOTION_DOT": 0.00134051, "MEAN_MOTION_DDOT": 0}, "tle": {"line1": "1 66448U 25259AC  25342.30452545  .00134051  00000+0  22496-2 0  9993", "line2": "2 66448  43.0019  73.1614 0001448 266.4850  93.5844 15.50607242  5489"}}, "geometry": {"type": "Point", "coordinates": [-27.38390596599387, -42.701553729797226]}}, {"type": "Feature", "properties": {"norad_id": 66449, "name": "STARLINK-34720", "group": "last-30-days", "lat": -42.84879223534913, "lon": -24.855146819999053, "alt_km": 417.21244847058824, "timestamp": "2025-12-08T17:43:03.631312+00:00", "meta": {"OBJECT_NAME": "STARLINK-34720", "OBJECT_ID": "2025-259AD", "EPOCH": "2025-12-08T07:18:01.291968", "MEAN_MOTION": 15.5059649, "ECCENTRICITY": 0.00014124, "INCLINATION": 42.9999, "RA_OF_ASC_NODE": 73.1599, "ARG_OF_PERICENTER": 275.5732, "MEAN_ANOMALY": 84.4968, "EPHEMERIS_TYPE": 0, "CLASSIFICATION_TYPE": "U", "NORAD_CAT_ID": 66449, "ELEMENT_SET_NO": 999, "REV_AT_EPOCH": 537, "BSTAR": 0.0013385805, "MEAN_MOTION_DOT": 0.00079032, "MEAN_MOTION_DDOT": 0}, "tle": {"line1": "1 66449U 25259AD  25342.30418162  .00079032  00000+0  13386-2 0  9996", "line2": "2 66449  42.9999  73.1599 0001412 275.5732  84.4968 15.50596490  5374"}}, "geometry": {"type": "Point", "coordinates": [-24.855146819999053, -42.84879223534913]}}, {"type": "Feature", "properties": {"norad_id": 66450, "name": "STARLINK-35334", "group": "last-30-days", "lat": -42.97936712883843, "lon": -18.876557157931174, "alt_km": 415.5866905936564, "timestamp": "2025-12-08T17:43:03.631324+00:00", "meta": {"OBJECT_NAME": "STARLINK-35334", "OBJECT_ID": "2025-259AE", "EPOCH": "2025-12-06T15:05:49.303968", "MEAN_MOTION": 15.50640512, "ECCENTRICITY": 0.00016631, "INCLINATION": 43.001, "RA_OF_ASC_NODE": 82.9491, "ARG_OF_PERICENTER": 265.9718, "MEAN_ANOMALY": 94.0952, "EPHEMERIS_TYPE": 0, "CLASSIFICATION_TYPE": "U", "NORAD_CAT_ID": 66450, "ELEMENT_SET_NO": 999, "REV_AT_EPOCH": 522, "BSTAR": 0.0021499199, "MEAN_MOTION_DOT": 0.0012815, "MEAN_MOTION_DDOT": 0}, "tle": {"line1": "1 66450U 25259AE  25340.62904287  .00128150  00000+0  21499-2 0  9999", "line2": "2 66450  43.0010  82.9491 0001663 265.9718  94.0952 15.50640512  5225"}}, "geometry": {"type": "Point", "coordinates": [-18.876557157931174, -42.97936712883843]}}, {"type": "Feature", "properties": {"norad_id": 66454, "name": "VIASAT-3 F2", "group": "last-30-days", "lat": -4.25544014294201, "lon": -116.97036360816598, "alt_km": 20261.46681013611, "timestamp": "2025-12-08T17:43:03.631354+00:00", "meta": {"OBJECT_NAME": "VIASAT-3 F2", "OBJECT_ID": "2025-261A", "EPOCH": "2025-12-04T21:51:56.064384", "MEAN_MOTION": 2.28030055, "ECCENTRICITY": 0.23396731, "INCLINATION": 5.5696, "RA_OF_ASC_NODE": 293.0418, "ARG_OF_PERICENTER": 184.3884, "MEAN_ANOMALY": 199.1368, "EPHEMERIS_TYPE": 0, "CLASSIFICATION_TYPE": "U", "NORAD_CAT_ID": 66454, "ELEMENT_SET_NO": 999, "REV_AT_EPOCH": 47, "BSTAR": 0, "MEAN_MOTION_DOT": -6.1e-07, "MEAN_MOTION_DDOT": 0}, "tle": {"line1": "1 66454U 25261A   25338.91106556 -.00000061  00000+0  00000+0 0  9991", "line2": "2 66454   5.5696 293.0418 2339673 184.3884 199.1368  2.28030055   477"}}, "geometry": {"type": "Point", "coordinates": [-116.97036360816598, -4.25544014294201]}}, {"type": "Feature", "properties": {"norad_id": 66455, "name": "ATLAS 5 CENTAUR R/B", "group": "last-30-days", "lat": -4.912801103156744, "lon": -120.72952815875631, "alt_km": 19861.96996891857, "timestamp": "2025-12-08T17:43:03.631370+00:00", "meta": {"OBJECT_NAME": "ATLAS 5 CENTAUR R/B", "OBJECT_ID": "2025-261B", "EPOCH": "2025-12-07T23:19:46.464384", "MEAN_MOTION": 2.28259438, "ECCENTRICITY": 0.23295288, "INCLINATION": 6.1518, "RA_OF_ASC_NODE": 292.0933, "ARG_OF_PERICENTER": 185.5256, "MEAN_ANOMALY": 186.9756, "EPHEMERIS_TYPE": 0, "CLASSIFICATION_TYPE": "U", "NORAD_CAT_ID": 66455, "ELEMENT_SET_NO": 999, "REV_AT_EPOCH": 54, "BSTAR": 0, "MEAN_MOTION_DOT": -7.7e-07, "MEAN_MOTION_DDOT": 0}, "tle": {"line1": "1 66455U 25261B   25341.97206556 -.00000077  00000+0  00000+0 0  9990", "line2": "2 66455   6.1518 292.0933 2329528 185.5256 186.9756  2.28259438   544"}}, "geometry": {"type": "Point", "coordinates": [-120.72952815875631, -4.912801103156744]}}, {"type": "Feature", "properties": {"norad_id": 66456, "name": "STARLINK-35643", "group": "last-30-days", "lat": -39.96979611764219, "lon": -21.24568437903043, "alt_km": 446.44743207386273, "timestamp": "2025-12-08T17:43:03.631383+00:00", "meta": {"OBJECT_NAME": "STARLINK-35643", "OBJECT_ID": "2025-262A", "EPOCH": "2025-12-08T06:00:02.999808", "MEAN_MOTION": 15.40623415, "ECCENTRICITY": 0.00012669, "INCLINATION": 43.0007, "RA_OF_ASC_NODE": 97.4787, "ARG_OF_PERICENTER": 262.6429, "MEAN_ANOMALY": 156.7885, "EPHEMERIS_TYPE": 0, "CLASSIFICATION_TYPE": "U", "NORAD_CAT_ID": 66456, "ELEMENT_SET_NO": 999, "REV_AT_EPOCH": 491, "BSTAR": 0.0020301135, "MEAN_MOTION_DOT": 0.00085234, "MEAN_MOTION_DDOT": 0}, "tle": {"line1": "1 66456U 25262A   25342.25003472  .00085234  00000+0  20301-2 0  9992", "line2": "2 66456  43.0007  97.4787 0001266 262.6429 156.7885 15.40623415  4916"}}, "geometry": {"type": "Point", "coordinates": [-21.24568437903043, -39.96979611764219]}}, {"type": "Feature", "properties": {"norad_id": 66457, "name": "STARLINK-35466", "group": "last-30-days", "lat": -42.75269901520832, "lon": 11.828738220600567, "alt_km": 443.4834233398369, "timestamp": "2025-12-08T17:43:03.631393+00:00", "meta": {"OBJECT_NAME": "STARLINK-35466", "OBJECT_ID": "2025-262B", "EPOCH": "2025-12-08T06:00:02.999808", "MEAN_MOTION": 15.43422032, "ECCENTRICITY": 0.00014524, "INCLINATION": 43.0007, "RA_OF_ASC_NODE": 97.4258, "ARG_OF_PERICENTER": 273.1133, "MEAN_ANOMALY": 167.9401, "EPHEMERIS_TYPE": 0, "CLASSIFICATION_TYPE": "U", "NORAD_CAT_ID": 66457, "ELEMENT_SET_NO": 999, "REV_AT_EPOCH": 491, "BSTAR": -0.041114469, "MEAN_MOTION_DOT": -0.01679451, "MEAN_MOTION_DDOT": 0}, "tle": {"line1": "1 66457U 25262B   25342.25003472 -.01679451  00000+0 -41114-1 0  9990", "line2": "2 66457  43.0007  97.4258 0001452 273.1133 167.9401 15.43422032  4919"}}, "geometry": {"type": "Point", "coordinates": [11.828738220600567, -42.75269901520832]}}, {"type": "Feature", "properties": {"norad_id": 66458, "name": "STARLINK-35684", "group": "last-30-days", "lat": -42.560188618843526, "lon": -5.16958521491385, "alt_km": 447.69788610873275, "timestamp": "2025-12-08T17:43:03.631404+00:00", "meta": {"OBJECT_NAME": "STARLINK-35684", "OBJECT_ID": "2025-262C", "EPOCH": "2025-12-08T06:00:02.999808", "MEAN_MOTION": 15.42148028, "ECCENTRICITY": 0.00014964, "INCLINATION": 43.0006, "RA_OF_ASC_NODE": 97.4499, "ARG_OF_PERICENTER": 261.9437, "MEAN_ANOMALY": 168.9858, "EPHEMERIS_TYPE": 0, "CLASSIFICATION_TYPE": "U", "NORAD_CAT_ID": 66458, "ELEMENT_SET_NO": 999, "REV_AT_EPOCH": 491, "BSTAR": -0.047185875, "MEAN_MOTION_DOT": -0.01858879, "MEAN_MOTION_DDOT": 0}, "tle": {"line1": "1 66458U 25262C   25342.25003472 -.01858879  00000+0 -47186-1 0  9999", "line2": "2 66458  43.0006  97.4499 0001496 261.9437 168.9858 15.42148028  4912"}}, "geometry": {"type": "Point", "coordinates": [-5.16958521491385, -42.560188618843526]}}]}